*******************************************************************************
Ephemeris / WWW_USER Fri Mar  7 10:56:35 2025 Pasadena, USA      / Horizons    
*******************************************************************************
Target body name: (2018 TZ5)                      {source: JPL#13}
Center body name: Earth (399)                     {source: DE441}
Center-site name: Mauna Kea
*******************************************************************************
Start time      : A.D. 2019-Jan-16 04:13:00.0000 UT      
Stop  time      : A.D. 2019-Jan-16 16:49:00.0000 UT      
Step-size       : 1 minutes
*******************************************************************************
Target pole/equ : undefined
Target radii    : undefined                                                    
Center geodetic : 204.5278, 19.8260847, 4.21024   {E-lon(deg),Lat(deg),Alt(km)}
Center cylindric: 204.5278, 6006.35451, 2151.0229 {E-lon(deg),Dxy(km),Dz(km)}
Center pole/equ : ITRF93                          {East-longitude positive}
Center radii    : 6378.137, 6378.137, 6356.752 km {Equator_a, b, pole_c}       
Target primary  : Sun
Vis. interferer : MOON (R_eq= 1737.400) km        {source: DE441}
Rel. light bend : Sun                             {source: DE441}
Rel. lght bnd GM: 1.3271E+11 km^3/s^2                                          
Small-body perts: Yes                             {source: SB441-N16}
Atmos refraction: NO (AIRLESS)
RA format       : HMS
Time format     : CAL 
Calendar mode   : Mixed Julian/Gregorian
RTS-only print  : NO       
EOP file        : eop.250306.p250602                                           
EOP coverage    : DATA-BASED 1962-JAN-20 TO 2025-MAR-06. PREDICTS-> 2025-JUN-01
Units conversion: 1 au= 149597870.700 km, c= 299792.458 km/s, 1 day= 86400.0 s 
Table cut-offs 1: Elevation (-90.0deg=NO ),Airmass (>38.000=NO), Daylight (YES)
Table cut-offs 2: Solar elongation (  0.0,180.0=NO ),Local Hour Angle( 0.0=NO )
Table cut-offs 3: RA/DEC angular rate (     0.0=NO )                           
*******************************************************************************
Initial IAU76/J2000 heliocentric ecliptic osculating elements (au, days, deg.):
  EPOCH=  2458421.5 ! 2018-Oct-30.00 (TDB)         Residual RMS= .3052         
   EC= .5505022016549632   QR= .8932716909804733   TP= 2458367.6074299323      
   OM= 132.9772150011661   W=  197.0626448515302   IN= 1.165364587967566       
  Equivalent ICRF heliocentric cartesian coordinates (au, au/d):
   X= 9.139681807821705E-01  Y= 6.232256283970929E-01  Z= 2.452583568287751E-01
  VX=-4.619682259947144E-03 VY= 1.729028462648113E-02 VZ= 7.287606215643615E-03
Asteroid physical parameters (km, seconds, rotational period in hours):        
   GM= n.a.                RAD= n.a.               ROTPER= n.a.                
   H= 24.4                 G= .150                 B-V= n.a.                   
                           ALBEDO= n.a.            STYP= n.a.                  
*******************************************************************************
 Date__(UT)__HR:MN     R.A._________(ICRF)_________DEC
******************************************************
$$SOE
 2019-Jan-16 10:22  m  03 19 00.908782 +16 47 38.21375
 2019-Jan-16 10:23  m  03 19 00.960861 +16 47 38.46906
 2019-Jan-16 10:24  m  03 19 01.012949 +16 47 38.72435
 2019-Jan-16 10:25  m  03 19 01.065048 +16 47 38.97963
 2019-Jan-16 10:26  m  03 19 01.117156 +16 47 39.23489
 2019-Jan-16 10:27  m  03 19 01.169274 +16 47 39.49013
 2019-Jan-16 10:28  m  03 19 01.221401 +16 47 39.74535
 2019-Jan-16 10:29  m  03 19 01.273539 +16 47 40.00056
 2019-Jan-16 10:30  m  03 19 01.325686 +16 47 40.25574
 2019-Jan-16 10:31  m  03 19 01.377843 +16 47 40.51092
 2019-Jan-16 10:32  m  03 19 01.430010 +16 47 40.76607
 2019-Jan-16 10:33  m  03 19 01.482187 +16 47 41.02121
 2019-Jan-16 10:34  m  03 19 01.534373 +16 47 41.27633
 2019-Jan-16 10:35  m  03 19 01.586570 +16 47 41.53144
 2019-Jan-16 10:36  m  03 19 01.638776 +16 47 41.78653
 2019-Jan-16 10:37  m  03 19 01.690993 +16 47 42.04161
 2019-Jan-16 10:38  m  03 19 01.743219 +16 47 42.29667
 2019-Jan-16 10:39  m  03 19 01.795455 +16 47 42.55171
 2019-Jan-16 10:40  m  03 19 01.847701 +16 47 42.80674
 2019-Jan-16 10:41  m  03 19 01.899957 +16 47 43.06176
 2019-Jan-16 10:42  m  03 19 01.952224 +16 47 43.31676
 2019-Jan-16 10:43  m  03 19 02.004500 +16 47 43.57174
 2019-Jan-16 10:44  m  03 19 02.056786 +16 47 43.82671
 2019-Jan-16 10:45  m  03 19 02.109082 +16 47 44.08167
 2019-Jan-16 10:46  m  03 19 02.161388 +16 47 44.33661
 2019-Jan-16 10:47  m  03 19 02.213705 +16 47 44.59154
 2019-Jan-16 10:48  m  03 19 02.266031 +16 47 44.84645
 2019-Jan-16 10:49  m  03 19 02.318368 +16 47 45.10135
 2019-Jan-16 10:50  m  03 19 02.370714 +16 47 45.35624
 2019-Jan-16 10:51  m  03 19 02.423071 +16 47 45.61112
 2019-Jan-16 10:52  m  03 19 02.475438 +16 47 45.86598
 2019-Jan-16 10:53  m  03 19 02.527815 +16 47 46.12083
 2019-Jan-16 10:54  m  03 19 02.580202 +16 47 46.37566
 2019-Jan-16 10:55  m  03 19 02.632599 +16 47 46.63048
 2019-Jan-16 10:56  m  03 19 02.685007 +16 47 46.88530
 2019-Jan-16 10:57  m  03 19 02.737425 +16 47 47.14009
 2019-Jan-16 10:58  m  03 19 02.789853 +16 47 47.39488
 2019-Jan-16 10:59  m  03 19 02.842291 +16 47 47.64966
 2019-Jan-16 11:00  m  03 19 02.894739 +16 47 47.90442
 2019-Jan-16 11:01  m  03 19 02.947198 +16 47 48.15917
 2019-Jan-16 11:02  m  03 19 02.999667 +16 47 48.41391
 2019-Jan-16 11:03  m  03 19 03.052146 +16 47 48.66864
 2019-Jan-16 11:04  m  03 19 03.104635 +16 47 48.92336
 2019-Jan-16 11:05  m  03 19 03.157135 +16 47 49.17807
 2019-Jan-16 11:06  m  03 19 03.209645 +16 47 49.43277
 2019-Jan-16 11:07  m  03 19 03.262165 +16 47 49.68746
 2019-Jan-16 11:08  m  03 19 03.314696 +16 47 49.94213
 2019-Jan-16 11:09  m  03 19 03.367237 +16 47 50.19680
 2019-Jan-16 11:10  m  03 19 03.419788 +16 47 50.45146
 2019-Jan-16 11:11  m  03 19 03.472349 +16 47 50.70611
 2019-Jan-16 11:12  m  03 19 03.524921 +16 47 50.96074
 2019-Jan-16 11:13  m  03 19 03.577504 +16 47 51.21537
 2019-Jan-16 11:14  m  03 19 03.630096 +16 47 51.46999
 2019-Jan-16 11:15  m  03 19 03.682700 +16 47 51.72461
 2019-Jan-16 11:16  m  03 19 03.735313 +16 47 51.97921
 2019-Jan-16 11:17  m  03 19 03.787937 +16 47 52.23380
 2019-Jan-16 11:18  m  03 19 03.840571 +16 47 52.48839
 2019-Jan-16 11:19  m  03 19 03.893216 +16 47 52.74297
 2019-Jan-16 11:20  m  03 19 03.945871 +16 47 52.99754
 2019-Jan-16 11:21  m  03 19 03.998536 +16 47 53.25210
 2019-Jan-16 11:22  m  03 19 04.051212 +16 47 53.50665
 2019-Jan-16 11:23  m  03 19 04.103899 +16 47 53.76120
 2019-Jan-16 11:24  m  03 19 04.156596 +16 47 54.01574
 2019-Jan-16 11:25  m  03 19 04.209303 +16 47 54.27027
 2019-Jan-16 11:26  m  03 19 04.262021 +16 47 54.52480
 2019-Jan-16 11:27  m  03 19 04.314749 +16 47 54.77932
 2019-Jan-16 11:28  m  03 19 04.367488 +16 47 55.03383
 2019-Jan-16 11:29  m  03 19 04.420237 +16 47 55.28834
 2019-Jan-16 11:30  m  03 19 04.472996 +16 47 55.54284
 2019-Jan-16 11:31  m  03 19 04.525766 +16 47 55.79733
 2019-Jan-16 11:32  m  03 19 04.578547 +16 47 56.05182
 2019-Jan-16 11:33  m  03 19 04.631338 +16 47 56.30630
 2019-Jan-16 11:34  m  03 19 04.684140 +16 47 56.56078
 2019-Jan-16 11:35  m  03 19 04.736952 +16 47 56.81525
 2019-Jan-16 11:36  m  03 19 04.789775 +16 47 57.06972
 2019-Jan-16 11:37  m  03 19 04.842608 +16 47 57.32419
 2019-Jan-16 11:38  m  03 19 04.895452 +16 47 57.57864
 2019-Jan-16 11:39  m  03 19 04.948306 +16 47 57.83310
 2019-Jan-16 11:40  m  03 19 05.001171 +16 47 58.08755
 2019-Jan-16 11:41  m  03 19 05.054046 +16 47 58.34199
 2019-Jan-16 11:42  m  03 19 05.106932 +16 47 58.59644
 2019-Jan-16 11:43  m  03 19 05.159828 +16 47 58.85087
 2019-Jan-16 11:44  m  03 19 05.212735 +16 47 59.10531
 2019-Jan-16 11:45  m  03 19 05.265653 +16 47 59.35974
 2019-Jan-16 11:46  m  03 19 05.318581 +16 47 59.61417
 2019-Jan-16 11:47  m  03 19 05.371519 +16 47 59.86859
 2019-Jan-16 11:48  m  03 19 05.424469 +16 48 00.12301
 2019-Jan-16 11:49  m  03 19 05.477428 +16 48 00.37743
 2019-Jan-16 11:50  m  03 19 05.530399 +16 48 00.63185
 2019-Jan-16 11:51  m  03 19 05.583379 +16 48 00.88627
 2019-Jan-16 11:52  m  03 19 05.636371 +16 48 01.14068
 2019-Jan-16 11:53  m  03 19 05.689373 +16 48 01.39509
 2019-Jan-16 11:54  m  03 19 05.742385 +16 48 01.64950
 2019-Jan-16 11:55  m  03 19 05.795408 +16 48 01.90391
 2019-Jan-16 11:56  m  03 19 05.848442 +16 48 02.15832
 2019-Jan-16 11:57  m  03 19 05.901486 +16 48 02.41272
 2019-Jan-16 11:58  m  03 19 05.954541 +16 48 02.66713
 2019-Jan-16 11:59  m  03 19 06.007606 +16 48 02.92153
 2019-Jan-16 12:00  m  03 19 06.060682 +16 48 03.17594
 2019-Jan-16 12:01  m  03 19 06.113769 +16 48 03.43034
 2019-Jan-16 12:02  m  03 19 06.166866 +16 48 03.68474
 2019-Jan-16 12:03  m  03 19 06.219973 +16 48 03.93915
 2019-Jan-16 12:04  m  03 19 06.273091 +16 48 04.19355
 2019-Jan-16 12:05  m  03 19 06.326220 +16 48 04.44795
 2019-Jan-16 12:06  m  03 19 06.379360 +16 48 04.70236
 2019-Jan-16 12:07  m  03 19 06.432509 +16 48 04.95676
 2019-Jan-16 12:08  m  03 19 06.485670 +16 48 05.21117
 2019-Jan-16 12:09  m  03 19 06.538841 +16 48 05.46558
 2019-Jan-16 12:10  m  03 19 06.592022 +16 48 05.71999
 2019-Jan-16 12:11  m  03 19 06.645214 +16 48 05.97440
 2019-Jan-16 12:12  m  03 19 06.698417 +16 48 06.22881
 2019-Jan-16 12:13  m  03 19 06.751630 +16 48 06.48322
 2019-Jan-16 12:14  m  03 19 06.804854 +16 48 06.73764
 2019-Jan-16 12:15  m  03 19 06.858088 +16 48 06.99206
 2019-Jan-16 12:16  m  03 19 06.911333 +16 48 07.24648
 2019-Jan-16 12:17  m  03 19 06.964588 +16 48 07.50090
 2019-Jan-16 12:18  m  03 19 07.017854 +16 48 07.75533
 2019-Jan-16 12:19  m  03 19 07.071130 +16 48 08.00976
 2019-Jan-16 12:20  m  03 19 07.124417 +16 48 08.26419
 2019-Jan-16 12:21  m  03 19 07.177715 +16 48 08.51863
 2019-Jan-16 12:22  m  03 19 07.231023 +16 48 08.77307
 2019-Jan-16 12:23  m  03 19 07.284341 +16 48 09.02751
 2019-Jan-16 12:24  m  03 19 07.337670 +16 48 09.28196
